ONEWEB-0379             
1 49305U 21090AC  26021.35887176  .00000234  00000+0  59584-3 0  9991
2 49305  87.9031 318.9703 0001767  73.9995 286.1329 13.14505287208271
ONEWEB-0380             
1 49306U 21090AD  26021.32800317 -.00000042  00000+0 -13639-3 0  9991
2 49306  87.9237 334.2005 0001958  83.5183 276.6172 13.19726093207054
ONEWEB-0381             
1 49307U 21090AE  26021.26590424  .00000236  00000+0  54952-3 0  9996
2 49307  87.9232 303.7513 0001985  75.4188 284.7165 13.20774088210437
ONEWEB-0382             
1 49308U 21090AF  26021.48054124  .00000215  00000+0  49762-3 0  9993
2 49308  87.9232 303.7052 0001980  71.2604 288.8744 13.20773481210454
ONEWEB-0383             
1 49309U 21090AG  26021.35254583  .00000317  00000+0  82101-3 0  9998
2 49309  87.9032 318.9568 0001813  71.8082 288.3245 13.14503797208300
ONEWEB-0384             
1 49310U 21090AH  26021.47307882  .00000162  00000+0  36527-3 0  9993
2 49310  87.9243 303.7462 0002127  65.8156 294.3200 13.20803617210464
ONEWEB-0385             
1 49311U 21090AJ  26021.24538297  .00000118  00000+0  25783-3 0  9998
2 49311  87.9230 303.7560 0001828  75.4200 284.7136 13.20770482210402
ONEWEB-0386             
1 49312U 21090AK  26021.49000584  .00000165  00000+0  37505-3 0  9996
2 49312  87.9232 303.6919 0001918  70.5410 289.5931 13.20774337210455
